{
    "links": {
        "self": "http://www.neowsapp.com/rest/v1/neo/3773052?api_key=iIulBulltgU6a56xZRHN4H3l9WmuAYTsLGpBGhQ2"
    },
    "id": "3773052",
    "neo_reference_id": "3773052",
    "name": "(2017 FQ102)",
    "designation": "2017 FQ102",
    "nasa_jpl_url": "http://ssd.jpl.nasa.gov/sbdb.cgi?sstr=3773052",
    "absolute_magnitude_h": 23.3,
    "estimated_diameter": {
        "kilometers": {
            "estimated_diameter_min": 0.058150704,
            "estimated_diameter_max": 0.130028927
        },
        "meters": {
            "estimated_diameter_min": 58.1507039646,
            "estimated_diameter_max": 130.0289270043
        },
        "miles": {
            "estimated_diameter_min": 0.0361331611,
            "estimated_diameter_max": 0.0807962044
        },
        "feet": {
            "estimated_diameter_min": 190.7831555951,
            "estimated_diameter_max": 426.6041048727
        }
    },
    "is_potentially_hazardous_asteroid": false,
    "close_approach_data": [
        {
            "close_approach_date": "2017-02-16",
            "close_approach_date_full": "2017-Feb-16 07:11",
            "epoch_date_close_approach": 1487229060000,
            "relative_velocity": {
                "kilometers_per_second": "8.9140636415",
                "kilometers_per_hour": "32090.6291093671",
                "miles_per_hour": "19939.8689596509"
            },
            "miss_distance": {
                "astronomical": "0.0760685655",
                "lunar": "29.5906719795",
                "kilometers": "11379695.372755485",
                "miles": "7071014.817316293"
            },
            "orbiting_body": "Earth"
        },
        {
            "close_approach_date": "2149-11-09",
            "close_approach_date_full": "2149-Nov-09 09:32",
            "epoch_date_close_approach": 5675736720000,
            "relative_velocity": {
                "kilometers_per_second": "24.1844037085",
                "kilometers_per_hour": "87063.8533507282",
                "miles_per_hour": "54098.0926556233"
            },
            "miss_distance": {
                "astronomical": "0.4699129751",
                "lunar": "182.7961473139",
                "kilometers": "70297980.160323037",
                "miles": "43681139.3502784306"
            },
            "orbiting_body": "Earth"
        },
        {
            "close_approach_date": "2158-03-14",
            "close_approach_date_full": "2158-Mar-14 06:15",
            "epoch_date_close_approach": 5938985700000,
            "relative_velocity": {
                "kilometers_per_second": "12.6227199236",
                "kilometers_per_hour": "45441.7917251263",
                "miles_per_hour": "28235.7621972042"
            },
            "miss_distance": {
                "astronomical": "0.0725285486",
                "lunar": "28.2136054054",
                "kilometers": "10850116.384751482",
                "miles": "6741949.6931231716"
            },
            "orbiting_body": "Earth"
        }
    ],
    "orbital_data": {
        "orbit_id": "4",
        "orbit_determination_date": "2017-04-22 06:18:26",
        "first_observation_date": "2017-03-27",
        "last_observation_date": "2017-04-21",
        "data_arc_in_days": 25,
        "observations_used": 25,
        "orbit_uncertainty": "7",
        "minimum_orbit_intersection": ".0312478",
        "jupiter_tisserand_invariant": "3.702",
        "epoch_osculation": "2459000.5",
        "eccentricity": ".5356550799803506",
        "semi_major_axis": "1.946158544215553",
        "inclination": "5.31944885802262",
        "ascending_node_longitude": "2.043341013014203",
        "orbital_period": "991.6667521168472",
        "perihelion_distance": ".9036888335593284",
        "perihelion_argument": "117.3230818615498",
        "aphelion_distance": "2.988628254871778",
        "perihelion_time": "2458769.505381993938",
        "mean_anomaly": "83.85686250413268",
        "mean_motion": ".3630251788027895",
        "equinox": "J2000",
        "orbit_class": {
            "orbit_class_type": "APO",
            "orbit_class_description": "Near-Earth asteroid orbits which cross the Earth’s orbit similar to that of 1862 Apollo",
            "orbit_class_range": "a (semi-major axis) > 1.0 AU; q (perihelion) < 1.017 AU"
        }
    },
    "is_sentry_object": false
}